stk.v.12.0



BEGIN Ephemeris

	NumberOfEphemerisPoints		30

	ScenarioEpoch			2023-01-10 02:00:00


	InterpolationMethod		 Lagrange

	InterpolationSamplesM1		 1

	CentralBody		 Earth

	CoordinateSystem		 Fixed



	EphemerisTimePosVel

0.0	 -33044508.28704604  24951059.20422466  13116073.29974429 	  694.86192919  325.79375755 1814.71473233 
60.0	 -33002744.4786879   24970470.83835782  13224818.36878961 	  696.78747258  320.38682695 1810.8730686  
120.0	 -32960866.68794636  24989557.95212975  13333331.99245897 	  698.65859674  314.97003176 1807.00302873 
180.0	 -32918878.18245563  25008319.96443837  13441612.47532609 	  700.47526843  309.54382827 1803.10472341 
240.0	 -32876782.23172567  25026756.32152732  13549658.12860323 	  702.23745835  304.10867266 1799.17826335 
300.0	 -32834582.10690304  25044866.49698568  13657467.27014175 	  703.9451411   298.66502101 1795.22375929 
360.0	 -32792281.08053727  25062649.99173864  13765038.22443288 	  705.59829523  293.21332929 1791.241322   
420.0	 -32749882.42634267  25080106.33404313  13872369.32260799 	  707.19690319  287.75405327 1787.23106225 
480.0	 -32707389.41896847  25097235.07947107  13979458.90243879 	  708.74095135  282.28764853 1783.19309086 
540.0	 -32664805.33376142  25114035.81090068  14086305.30833759 	  710.23042995  276.81457044 1779.12751862 
600.0	 -32622133.44653357  25130508.1385004   14192906.89135699 	  711.66533316  271.33527407 1775.03445636 
660.0	 -32579377.03332572  25146651.69971627  14299262.00918996 	  713.04565902  265.85021422 1770.91401492 
720.0	 -32536539.37017912  25162466.15924791  14405369.02616919 	  714.37140945  260.35984536 1766.76630513 
780.0	 -32493623.73289992  25177951.20903235  14511226.31326672 	  715.64259024  254.86462159 1762.59143783 
840.0	 -32450633.39682855  25193106.56822016  14616832.2480933  	  716.85921106  249.36499664 1758.38952387 
900.0	 -32407571.63660502  25207931.98315578  14722185.21489746 	  718.02128542  243.8614238  1754.16067408 
960.0	 -32364441.72594263  25222427.22734564  14827283.60456472 	  719.12883068  238.35435593 1749.90499931 
1020.0	 -32321246.93739403  25236592.10143481  14932125.81461641 	  720.18186805  232.84424539 1745.62261038 
1080.0	 -32277990.54212293  25250426.43317565  15036710.24920844 	  721.18042257  227.33154405 1741.31361812 
1140.0	 -32234675.80967118  25263930.07740055  15141035.31913011 	  722.12452308  221.8167032  1736.97813333 
1200.0	 -32191306.00773453  25277102.91598305  15245099.44180234 	  723.01420227  216.30017359 1732.61626681 
1260.0	 -32147884.40193111  25289944.85780695  15348901.04127638 	  723.84949661  210.78240536 1728.22812934 
1320.0	 -32104414.25557493  25302455.83872766  15452438.54823179 	  724.63044636  205.263848   1723.81383168 
1380.0	 -32060898.82944551  25314635.82153765  15555710.39997488 	  725.35709559  199.74495035 1719.37348459 
1440.0	 -32017341.38156581  25326484.79592048  15658715.04043636 	  726.02949212  194.22616055 1714.90719877 
1500.0	 -31973745.16697297  25338002.77841242  15761450.92016952 	  726.64768755  188.70792601 1710.41508493 
1560.0	 -31930113.43749436  25349189.81235677  15863916.49634794 	  727.21173723  183.1906934  1705.89725373 
1620.0	 -31886449.44151942  25360045.96786233  15966110.23276299 	  727.72170025  177.6749086  1701.35381582 
1680.0	 -31842756.4237804   25370571.34174966  16068030.59982166 	  728.17763944  172.16101667 1696.7848818  
1740.0	 -31799037.62512533  25380766.05750638  16169676.0745437  	  728.57962134  166.64946183 1692.19056226 
1800.0	 -31755296.28229682  25390630.26523384  16271045.14055911 	  728.92771622  161.14068742 1687.57096774 


END Ephemeris